OBJECT_NAME,OBJECT_ID,EPOCH,MEAN_MOTION,ECCENTRICITY,INCLINATION,RA_OF_ASC_NODE,ARG_OF_PERICENTER,MEAN_ANOMALY,EPHEMERIS_TYPE,CLASSIFICATION_TYPE,NORAD_CAT_ID,ELEMENT_SET_NO,REV_AT_EPOCH,BSTAR,MEAN_MOTION_DOT,MEAN_MOTION_DDOT
QIANFAN-147,2026-108C,2026-06-07T10:26:35.836800,14.17033885,.0015706,89.0118,23.3027,141.7738,218.4568,0,U,69106,999,296,.14716E-3,.31E-5,0
QIANFAN-148,2026-108D,2026-06-07T10:17:42.748800,14.17403018,.0016214,89.0119,23.3021,146.6355,213.5859,0,U,69107,999,296,.14725E-3,.313E-5,0
QIANFAN-149,2026-108E,2026-06-07T10:13:31.069056,14.17857573,.001586,89.0121,23.3020,145.8932,214.3279,0,U,69108,999,296,.14963E-3,.32E-5,0
QIANFAN-150,2026-108F,2026-06-07T10:01:16.657824,14.18306005,.0015894,89.0122,23.3009,147.6074,212.6094,0,U,69109,999,296,.14325E-3,.31E-5,0
QIANFAN-151,2026-108G,2026-06-07T09:52:58.986912,14.18801765,.001601,89.0121,23.2999,146.1946,214.0268,0,U,69110,999,296,.15755E-3,.342E-5,0
QIANFAN-152,2026-108H,2026-06-07T09:45:49.624704,14.19418993,.001522,89.0120,23.2989,146.1140,214.1026,0,U,69111,999,296,.14787E-3,.326E-5,0
QIANFAN-153,2026-108J,2026-06-07T09:38:23.735040,14.19642179,.0016415,89.0118,23.2977,146.0676,214.1567,0,U,69112,999,296,.14833E-3,.328E-5,0
QIANFAN-154,2026-108K,2026-06-07T09:28:27.482592,14.20190253,.0016081,89.0122,23.2975,144.0092,216.2184,0,U,69113,999,296,.14681E-3,.328E-5,0
QIANFAN-155,2026-108L,2026-06-07T09:32:55.315680,14.19535651,.0016795,89.0122,23.2980,144.3351,215.8965,0,U,69114,999,296,.15339E-3,.338E-5,0
QIANFAN-156,2026-108M,2026-06-07T09:21:18.987840,14.20958047,.0016432,89.0126,23.2974,145.5758,214.6500,0,U,69115,999,296,.14326E-3,.325E-5,0
QIANFAN-157,2026-108N,2026-06-06T07:24:56.109600,14.24908081,.00165908,89.0123,23.4118,153.6669,206.5371,0,U,69116,999,281,.15435736E-3,.375E-5,0
QIANFAN-158,2026-108P,2026-06-07T09:11:44.162592,14.21847553,.0016369,89.0121,23.2956,146.8971,213.3248,0,U,69117,999,296,.14917E-3,.343E-5,0
QIANFAN-159,2026-108Q,2026-06-07T09:05:45.817728,14.22293902,.0016074,89.0120,23.2948,146.7433,213.4771,0,U,69118,999,296,.15087E-3,.35E-5,0
QIANFAN-160,2026-108R,2026-06-07T09:00:53.237952,14.22717530,.0015793,89.0122,23.2947,146.6011,213.6181,0,U,69119,999,296,.38188E-4,.1E-5,0
QIANFAN-161,2026-108S,2026-06-07T08:55:38.385984,14.23189228,.0015805,89.0122,23.2941,147.3167,212.9006,0,U,69120,999,296,.14778E-3,.349E-5,0
QIANFAN-162,2026-108T,2026-06-07T10:33:36.775008,14.23624731,.0015648,89.0121,23.2857,148.2825,211.9313,0,U,69121,999,297,.1504E-3,.358E-5,0
SMILE,2026-109A,2026-05-24T15:40:35.120928,14.57062785,.00091232,70.0007,229.2745,259.5159,100.4951,0,U,69123,999,80,-.42378883E-3,-.1976E-4,0
STARLINK-37726,2026-110A,2026-06-07T12:00:04.000320,15.49149213,.0001513,97.2858,354.6295,79.2761,33.8930,0,U,69124,999,410,.17054E-2,.93641E-3,0
STARLINK-37722,2026-110B,2026-06-07T12:00:04.000320,15.59913344,.0001852,97.2846,354.7778,71.0649,23.1555,0,U,69125,999,415,-.34268E-1,-.2412341E-1,0
STARLINK-37715,2026-110C,2026-06-07T12:00:04.000320,15.69600305,.000193,97.2849,354.8235,87.8392,124.0984,0,U,69126,999,410,-.24723E-1,-.2543504E-1,0
STARLINK-37706,2026-110D,2026-06-07T12:00:04.000320,15.69950190,.0001917,97.2849,354.8269,87.4471,131.1605,0,U,69127,999,410,-.24317E-1,-.2539155E-1,0
STARLINK-37723,2026-110E,2026-06-07T12:00:04.000320,15.70365832,.0001819,97.2853,354.8303,85.5666,140.4155,0,U,69128,999,410,-.24079E-1,-.2555807E-1,0
STARLINK-37720,2026-110F,2026-06-07T12:00:04.000320,15.49148590,.000197,97.2860,354.6499,88.5920,73.5356,0,U,69129,999,410,.16397E-2,.89988E-3,0
STARLINK-37533,2026-110G,2026-06-05T20:51:48.022848,15.80753113,.00016063,97.2839,353.1262,86.5092,273.6360,0,U,69130,999,385,-.28200148E-3,-.53675E-3,0
STARLINK-37530,2026-110H,2026-06-05T22:21:52.099200,15.80840143,.000083,97.2840,353.1944,62.1150,298.0203,0,U,69131,999,386,.27125343E-3,.52184E-3,0
STARLINK-37660,2026-110J,2026-06-07T12:00:04.000320,15.62514859,.0001748,97.2853,354.7968,69.9397,70.4840,0,U,69132,999,410,-.23416E-1,-.1848631E-1,0
STARLINK-37633,2026-110K,2026-06-07T12:00:04.000320,15.64361649,.0002003,97.2850,354.8016,84.9833,73.9781,0,U,69133,999,410,-.30223E-1,-.2516143E-1,0
STARLINK-37361,2026-110L,2026-06-07T12:00:04.000320,15.72821587,.0001625,97.2842,354.8501,87.2009,183.5003,0,U,69134,999,410,-.21336E-1,-.2462201E-1,0
STARLINK-37372,2026-110M,2026-06-07T12:00:04.000320,15.63738453,.000197,97.2850,354.8199,83.7849,116.1753,0,U,69135,999,410,-.32002E-1,-.2587832E-1,0
