QIANFAN-147             
1 69106U 26108C   26158.43513700  .00000310  00000+0  14716-3 0  9999
2 69106  89.0118  23.3027 0015706 141.7738 218.4568 14.17033885  2969
QIANFAN-148             
1 69107U 26108D   26158.42896700  .00000313  00000+0  14725-3 0  9996
2 69107  89.0119  23.3021 0016214 146.6355 213.5859 14.17403018  2967
QIANFAN-149             
1 69108U 26108E   26158.42605404  .00000320  00000+0  14963-3 0  9998
2 69108  89.0121  23.3020 0015860 145.8932 214.3279 14.17857573  2962
QIANFAN-150             
1 69109U 26108F   26158.41755391  .00000310  00000+0  14325-3 0  9990
2 69109  89.0122  23.3009 0015894 147.6074 212.6094 14.18306005  2961
QIANFAN-151             
1 69110U 26108G   26158.41179383  .00000342  00000+0  15755-3 0  9996
2 69110  89.0121  23.2999 0016010 146.1946 214.0268 14.18801765  2964
QIANFAN-152             
1 69111U 26108H   26158.40682436  .00000326  00000+0  14787-3 0  9990
2 69111  89.0120  23.2989 0015220 146.1140 214.1026 14.19418993  2962
QIANFAN-153             
1 69112U 26108J   26158.40166360  .00000328  00000+0  14833-3 0  9998
2 69112  89.0118  23.2977 0016415 146.0676 214.1567 14.19642179  2962
QIANFAN-154             
1 69113U 26108K   26158.39476253  .00000328  00000+0  14681-3 0  9993
2 69113  89.0122  23.2975 0016081 144.0092 216.2184 14.20190253  2966
QIANFAN-155             
1 69114U 26108L   26158.39786245  .00000338  00000+0  15339-3 0  9991
2 69114  89.0122  23.2980 0016795 144.3351 215.8965 14.19535651  2961
QIANFAN-156             
1 69115U 26108M   26158.38980310  .00000325  00000+0  14326-3 0  9991
2 69115  89.0126  23.2974 0016432 145.5758 214.6500 14.20958047  2963
QIANFAN-157             
1 69116U 26108N   26157.30898275  .00000375  00000+0  15436-3 0  9999
2 69116  89.0123  23.4118 0016590 153.6669 206.5371 14.24908081  2816
QIANFAN-158             
1 69117U 26108P   26158.38315003  .00000343  00000+0  14917-3 0  9990
2 69117  89.0121  23.2956 0016369 146.8971 213.3248 14.21847553  2965
QIANFAN-159             
1 69118U 26108Q   26158.37900252  .00000350  00000+0  15087-3 0  9993
2 69118  89.0120  23.2948 0016074 146.7433 213.4771 14.22293902  2967
QIANFAN-160             
1 69119U 26108R   26158.37561618  .00000100  00000+0  38188-4 0  9994
2 69119  89.0122  23.2947 0015793 146.6011 213.6181 14.22717530  2962
QIANFAN-161             
1 69120U 26108S   26158.37197206  .00000349  00000+0  14778-3 0  9997
2 69120  89.0122  23.2941 0015805 147.3167 212.9006 14.23189228  2968
QIANFAN-162             
1 69121U 26108T   26158.44000897  .00000358  00000+0  15040-3 0  9998
2 69121  89.0121  23.2857 0015648 148.2825 211.9313 14.23624731  2974
SMILE                   
1 69123U 26109A   26144.65318427 -.00001976  00000+0 -42379-3 0  9994
2 69123  70.0007 229.2745 0009123 259.5159 100.4951 14.57062785   802
STARLINK-37726          
1 69124U 26110A   26158.50004630  .00093641  00000+0  17054-2 0  9993
2 69124  97.2858 354.6295 0001513  79.2761  33.8930 15.49149213  4109
STARLINK-37722          
1 69125U 26110B   26158.50004630 -.02412341  00000+0 -34268-1 0  9995
2 69125  97.2846 354.7778 0001852  71.0649  23.1555 15.59913344  4150
STARLINK-37715          
1 69126U 26110C   26158.50004630 -.02543504  00000+0 -24723-1 0  9997
2 69126  97.2849 354.8235 0001930  87.8392 124.0984 15.69600305  4103
STARLINK-37706          
1 69127U 26110D   26158.50004630 -.02539155  00000+0 -24317-1 0  9994
2 69127  97.2849 354.8269 0001917  87.4471 131.1605 15.69950190  4109
STARLINK-37723          
1 69128U 26110E   26158.50004630 -.02555807  00000+0 -24079-1 0  9992
2 69128  97.2853 354.8303 0001819  85.5666 140.4155 15.70365832  4108
STARLINK-37720          
1 69129U 26110F   26158.50004630  .00089988  00000+0  16397-2 0  9996
2 69129  97.2860 354.6499 0001970  88.5920  73.5356 15.49148590  4100
STARLINK-37533          
1 69130U 26110G   26156.86930582 -.00053675  00000+0 -28200-3 0  9992
2 69130  97.2839 353.1262 0001606  86.5092 273.6360 15.80753113  3851
STARLINK-37530          
1 69131U 26110H   26156.93185300  .00052184  00000+0  27125-3 0  9998
2 69131  97.2840 353.1944 0000830  62.1150 298.0203 15.80840143  3862
STARLINK-37660          
1 69132U 26110J   26158.50004630 -.01848631  00000+0 -23416-1 0  9990
2 69132  97.2853 354.7968 0001748  69.9397  70.4840 15.62514859  4106
STARLINK-37633          
1 69133U 26110K   26158.50004630 -.02516143  00000+0 -30223-1 0  9996
2 69133  97.2850 354.8016 0002003  84.9833  73.9781 15.64361649  4107
STARLINK-37361          
1 69134U 26110L   26158.50004630 -.02462201  00000+0 -21336-1 0  9997
2 69134  97.2842 354.8501 0001625  87.2009 183.5003 15.72821587  4104
STARLINK-37372          
1 69135U 26110M   26158.50004630 -.02587832  00000+0 -32002-1 0  9998
2 69135  97.2850 354.8199 0001970  83.7849 116.1753 15.63738453  4106
